SL-14 R/B               
1 16792U 86046B   25357.89623720  .00000535  00000+0  58870-4 0  9992
2 16792  82.4816 151.7777 0024476 116.9939 243.3780 14.85496216115158
SL-14 R/B               
1 16882U 86055B   25358.10775639  .00000455  00000+0  49779-4 0  9993
2 16882  82.5195 197.6905 0017940 218.9503 264.1803 14.85541139108142
AJISAI (EGS)            
1 16908U 86061A   25358.15140590 -.00000086  00000+0  81111-4 0  9993
2 16908  50.0112 325.6272 0011316  94.5711 356.1331 12.44514423458594
COSMOS 1812             
1 17295U 87003A   25357.26683100  .00109215  00000+0  64942-3 0  9995
2 17295  82.4878 280.6041 0006515  71.8157 288.3817 15.77617580132314
SL-14 R/B               
1 17567U 87024B   25357.48578728  .00000519  00000+0  56439-4 0  9993
2 17567  82.5277 164.3593 0019015 149.1516 211.0823 14.86034499 76810
COSMOS 1833             
1 17589U 87027A   25358.11513468  .00000274  00000+0  17223-3 0  9996
2 17589  70.9158 124.8643 0023032 315.8417  44.0864 14.13027443999630
SL-16 R/B               
1 17590U 87027B   25357.67255718  .00000047  00000+0  47326-4 0  9995
2 17590  71.0039  76.6813 0007222 248.1451 111.8905 14.17156502  4576
SL-14 R/B               
1 17912U 87038B   25358.11525605  .00000474  00000+0  52184-4 0  9992
2 17912  82.5009   7.9855 0020638  57.1807 303.1393 14.85271231 68018
COSMOS 1844             
1 17973U 87041A   25358.01797485  .00000317  00000+0  18930-3 0  9995
2 17973  70.8966 193.7830 0029650 139.2538 221.0809 14.14530533992886
SL-14 R/B               
1 18153U 87055B   25358.10513412  .00000489  00000+0  53706-4 0  9998
2 18153  82.4991  60.2773 0019166 262.8780  97.0257 14.85532247 58716
COSMOS 1867             
1 18187U 87060A   25357.85070073 -.00000044  00000+0  21111-4 0  9996
2 18187  65.0088 159.0870 0013649 272.1885  87.7636 14.31487767  9082
SL-14 R/B               
1 18749U 88001B   25357.69132710  .00000483  00000+0  53072-4 0  9992
2 18749  82.5135 266.8474 0019310 126.5518 233.7479 14.85434632 30743
