CCSDS_OMM_VERS = 2.0
CREATION_DATE  = 
ORIGINATOR     = 

OBJECT_NAME    = SL-14 R/B
OBJECT_ID      = 1986-046B
CENTER_NAME    = EARTH
REF_FRAME      = TEME
TIME_SYSTEM    = UTC
MEAN_ELEMENT_THEORY = SGP/SGP4

EPOCH          = 2025-12-23T21:30:34.894080
MEAN_MOTION    = 14.85496216
ECCENTRICITY   = .0024476
INCLINATION    = 82.4816
RA_OF_ASC_NODE = 151.7777
ARG_OF_PERICENTER = 116.9939
MEAN_ANOMALY   = 243.3780

EPHEMERIS_TYPE = 0
CLASSIFICATION_TYPE = U
NORAD_CAT_ID   = 16792
ELEMENT_SET_NO = 999
REV_AT_EPOCH   = 11515
BSTAR          = .5887E-4
MEAN_MOTION_DOT = .535E-5
MEAN_MOTION_DDOT = 0

CCSDS_OMM_VERS = 2.0
CREATION_DATE  = 
ORIGINATOR     = 

OBJECT_NAME    = SL-14 R/B
OBJECT_ID      = 1986-055B
CENTER_NAME    = EARTH
REF_FRAME      = TEME
TIME_SYSTEM    = UTC
MEAN_ELEMENT_THEORY = SGP/SGP4

EPOCH          = 2025-12-24T02:35:10.152096
MEAN_MOTION    = 14.85541139
ECCENTRICITY   = .001794
INCLINATION    = 82.5195
RA_OF_ASC_NODE = 197.6905
ARG_OF_PERICENTER = 218.9503
MEAN_ANOMALY   = 264.1803

EPHEMERIS_TYPE = 0
CLASSIFICATION_TYPE = U
NORAD_CAT_ID   = 16882
ELEMENT_SET_NO = 999
REV_AT_EPOCH   = 10814
BSTAR          = .49779E-4
MEAN_MOTION_DOT = .455E-5
MEAN_MOTION_DDOT = 0

CCSDS_OMM_VERS = 2.0
CREATION_DATE  = 
ORIGINATOR     = 

OBJECT_NAME    = AJISAI (EGS)
OBJECT_ID      = 1986-061A
CENTER_NAME    = EARTH
REF_FRAME      = TEME
TIME_SYSTEM    = UTC
MEAN_ELEMENT_THEORY = SGP/SGP4

EPOCH          = 2025-12-24T03:38:01.469760
MEAN_MOTION    = 12.44514423
ECCENTRICITY   = .0011316
INCLINATION    = 50.0112
RA_OF_ASC_NODE = 325.6272
ARG_OF_PERICENTER = 94.5711
MEAN_ANOMALY   = 356.1331

EPHEMERIS_TYPE = 0
CLASSIFICATION_TYPE = U
NORAD_CAT_ID   = 16908
ELEMENT_SET_NO = 999
REV_AT_EPOCH   = 45859
BSTAR          = .81111E-4
MEAN_MOTION_DOT = -.86E-6
MEAN_MOTION_DDOT = 0

CCSDS_OMM_VERS = 2.0
CREATION_DATE  = 
ORIGINATOR     = 

OBJECT_NAME    = COSMOS 1812
OBJECT_ID      = 1987-003A
CENTER_NAME    = EARTH
REF_FRAME      = TEME
TIME_SYSTEM    = UTC
MEAN_ELEMENT_THEORY = SGP/SGP4

EPOCH          = 2025-12-23T06:24:14.198400
MEAN_MOTION    = 15.77617580
ECCENTRICITY   = .00065156
INCLINATION    = 82.4878
RA_OF_ASC_NODE = 280.6041
ARG_OF_PERICENTER = 71.8157
MEAN_ANOMALY   = 288.3817

EPHEMERIS_TYPE = 0
CLASSIFICATION_TYPE = U
NORAD_CAT_ID   = 17295
ELEMENT_SET_NO = 999
REV_AT_EPOCH   = 13231
BSTAR          = .64941812E-3
MEAN_MOTION_DOT = .109215E-2
MEAN_MOTION_DDOT = 0

CCSDS_OMM_VERS = 2.0
CREATION_DATE  = 
ORIGINATOR     = 

OBJECT_NAME    = SL-14 R/B
OBJECT_ID      = 1987-024B
CENTER_NAME    = EARTH
REF_FRAME      = TEME
TIME_SYSTEM    = UTC
MEAN_ELEMENT_THEORY = SGP/SGP4

EPOCH          = 2025-12-23T11:39:32.020992
MEAN_MOTION    = 14.86034499
ECCENTRICITY   = .00190152
INCLINATION    = 82.5277
RA_OF_ASC_NODE = 164.3593
ARG_OF_PERICENTER = 149.1516
MEAN_ANOMALY   = 211.0823

EPHEMERIS_TYPE = 0
CLASSIFICATION_TYPE = U
NORAD_CAT_ID   = 17567
ELEMENT_SET_NO = 999
REV_AT_EPOCH   = 7681
BSTAR          = .56438556E-4
MEAN_MOTION_DOT = .519E-5
MEAN_MOTION_DDOT = 0

CCSDS_OMM_VERS = 2.0
CREATION_DATE  = 
ORIGINATOR     = 

OBJECT_NAME    = COSMOS 1833
OBJECT_ID      = 1987-027A
CENTER_NAME    = EARTH
REF_FRAME      = TEME
TIME_SYSTEM    = UTC
MEAN_ELEMENT_THEORY = SGP/SGP4

EPOCH          = 2025-12-24T02:45:47.636352
MEAN_MOTION    = 14.13027443
ECCENTRICITY   = .0023032
INCLINATION    = 70.9158
RA_OF_ASC_NODE = 124.8643
ARG_OF_PERICENTER = 315.8417
MEAN_ANOMALY   = 44.0864

EPHEMERIS_TYPE = 0
CLASSIFICATION_TYPE = U
NORAD_CAT_ID   = 17589
ELEMENT_SET_NO = 999
REV_AT_EPOCH   = 99963
BSTAR          = .17223E-3
MEAN_MOTION_DOT = .274E-5
MEAN_MOTION_DDOT = 0

CCSDS_OMM_VERS = 2.0
CREATION_DATE  = 
ORIGINATOR     = 

OBJECT_NAME    = SL-16 R/B
OBJECT_ID      = 1987-027B
CENTER_NAME    = EARTH
REF_FRAME      = TEME
TIME_SYSTEM    = UTC
MEAN_ELEMENT_THEORY = SGP/SGP4

EPOCH          = 2025-12-23T16:08:28.940352
MEAN_MOTION    = 14.17156502
ECCENTRICITY   = .0007222
INCLINATION    = 71.0039
RA_OF_ASC_NODE = 76.6813
ARG_OF_PERICENTER = 248.1451
MEAN_ANOMALY   = 111.8905

EPHEMERIS_TYPE = 0
CLASSIFICATION_TYPE = U
NORAD_CAT_ID   = 17590
ELEMENT_SET_NO = 999
REV_AT_EPOCH   = 457
BSTAR          = .47325782E-4
MEAN_MOTION_DOT = .47E-6
MEAN_MOTION_DDOT = 0

CCSDS_OMM_VERS = 2.0
CREATION_DATE  = 
ORIGINATOR     = 

OBJECT_NAME    = SL-14 R/B
OBJECT_ID      = 1987-038B
CENTER_NAME    = EARTH
REF_FRAME      = TEME
TIME_SYSTEM    = UTC
MEAN_ELEMENT_THEORY = SGP/SGP4

EPOCH          = 2025-12-24T02:45:58.122720
MEAN_MOTION    = 14.85271231
ECCENTRICITY   = .0020638
INCLINATION    = 82.5009
RA_OF_ASC_NODE = 7.9855
ARG_OF_PERICENTER = 57.1807
MEAN_ANOMALY   = 303.1393

EPHEMERIS_TYPE = 0
CLASSIFICATION_TYPE = U
NORAD_CAT_ID   = 17912
ELEMENT_SET_NO = 999
REV_AT_EPOCH   = 6801
BSTAR          = .52184E-4
MEAN_MOTION_DOT = .474E-5
MEAN_MOTION_DDOT = 0

CCSDS_OMM_VERS = 2.0
CREATION_DATE  = 
ORIGINATOR     = 

OBJECT_NAME    = COSMOS 1844
OBJECT_ID      = 1987-041A
CENTER_NAME    = EARTH
REF_FRAME      = TEME
TIME_SYSTEM    = UTC
MEAN_ELEMENT_THEORY = SGP/SGP4

EPOCH          = 2025-12-24T00:25:53.027040
MEAN_MOTION    = 14.14530533
ECCENTRICITY   = .002965
INCLINATION    = 70.8966
RA_OF_ASC_NODE = 193.7830
ARG_OF_PERICENTER = 139.2538
MEAN_ANOMALY   = 221.0809

EPHEMERIS_TYPE = 0
CLASSIFICATION_TYPE = U
NORAD_CAT_ID   = 17973
ELEMENT_SET_NO = 999
REV_AT_EPOCH   = 99288
BSTAR          = .1893E-3
MEAN_MOTION_DOT = .317E-5
MEAN_MOTION_DDOT = 0

CCSDS_OMM_VERS = 2.0
CREATION_DATE  = 
ORIGINATOR     = 

OBJECT_NAME    = SL-14 R/B
OBJECT_ID      = 1987-055B
CENTER_NAME    = EARTH
REF_FRAME      = TEME
TIME_SYSTEM    = UTC
MEAN_ELEMENT_THEORY = SGP/SGP4

EPOCH          = 2025-12-24T02:31:23.587968
MEAN_MOTION    = 14.85532247
ECCENTRICITY   = .0019166
INCLINATION    = 82.4991
RA_OF_ASC_NODE = 60.2773
ARG_OF_PERICENTER = 262.8780
MEAN_ANOMALY   = 97.0257

EPHEMERIS_TYPE = 0
CLASSIFICATION_TYPE = U
NORAD_CAT_ID   = 18153
ELEMENT_SET_NO = 999
REV_AT_EPOCH   = 5871
BSTAR          = .53706E-4
MEAN_MOTION_DOT = .489E-5
MEAN_MOTION_DDOT = 0

CCSDS_OMM_VERS = 2.0
CREATION_DATE  = 
ORIGINATOR     = 

OBJECT_NAME    = COSMOS 1867
OBJECT_ID      = 1987-060A
CENTER_NAME    = EARTH
REF_FRAME      = TEME
TIME_SYSTEM    = UTC
MEAN_ELEMENT_THEORY = SGP/SGP4

EPOCH          = 2025-12-23T20:25:00.543072
MEAN_MOTION    = 14.31487767
ECCENTRICITY   = .0013649
INCLINATION    = 65.0088
RA_OF_ASC_NODE = 159.0870
ARG_OF_PERICENTER = 272.1885
MEAN_ANOMALY   = 87.7636

EPHEMERIS_TYPE = 0
CLASSIFICATION_TYPE = U
NORAD_CAT_ID   = 18187
ELEMENT_SET_NO = 999
REV_AT_EPOCH   = 908
BSTAR          = .21111E-4
MEAN_MOTION_DOT = -.44E-6
MEAN_MOTION_DDOT = 0

CCSDS_OMM_VERS = 2.0
CREATION_DATE  = 
ORIGINATOR     = 

OBJECT_NAME    = SL-14 R/B
OBJECT_ID      = 1988-001B
CENTER_NAME    = EARTH
REF_FRAME      = TEME
TIME_SYSTEM    = UTC
MEAN_ELEMENT_THEORY = SGP/SGP4

EPOCH          = 2025-12-23T16:35:30.661440
MEAN_MOTION    = 14.85434632
ECCENTRICITY   = .00193108
INCLINATION    = 82.5135
RA_OF_ASC_NODE = 266.8474
ARG_OF_PERICENTER = 126.5518
MEAN_ANOMALY   = 233.7479

EPHEMERIS_TYPE = 0
CLASSIFICATION_TYPE = U
NORAD_CAT_ID   = 18749
ELEMENT_SET_NO = 999
REV_AT_EPOCH   = 3074
BSTAR          = .53072495E-4
MEAN_MOTION_DOT = .483E-5
MEAN_MOTION_DDOT = 0

